TIGER-6                 
1 58272U 23174S   26068.73366727  .00113437  00000+0  98002-3 0  9994
2 58272  97.3904 161.9275 0003121 155.9023 204.2385 15.68857868130641
STARLINK-11349 [DTC]    
1 61544U 24184N   26068.74231162  .00000431  00000+0  84192-5 0  9993
2 61544  53.1597 236.1429 0001137  72.1217 287.9924 15.69692548 80421
