[{"OBJECT_NAME":"TIGER-6","OBJECT_ID":"2023-174S","EPOCH":"2026-03-09T17:36:28.852992","MEAN_MOTION":15.68857868,"ECCENTRICITY":0.0003121,"INCLINATION":97.3904,"RA_OF_ASC_NODE":161.9275,"ARG_OF_PERICENTER":155.9023,"MEAN_ANOMALY":204.2385,"EPHEMERIS_TYPE":0,"CLASSIFICATION_TYPE":"U","NORAD_CAT_ID":58272,"ELEMENT_SET_NO":999,"REV_AT_EPOCH":13064,"BSTAR":0.00098002434,"MEAN_MOTION_DOT":0.00113437,"MEAN_MOTION_DDOT":0},{"OBJECT_NAME":"STARLINK-11349 [DTC]","OBJECT_ID":"2024-184N","EPOCH":"2026-03-09T17:48:55.723968","MEAN_MOTION":15.69692548,"ECCENTRICITY":0.00011368,"INCLINATION":53.1597,"RA_OF_ASC_NODE":236.1429,"ARG_OF_PERICENTER":72.1217,"MEAN_ANOMALY":287.9924,"EPHEMERIS_TYPE":0,"CLASSIFICATION_TYPE":"U","NORAD_CAT_ID":61544,"ELEMENT_SET_NO":999,"REV_AT_EPOCH":8042,"BSTAR":8.419162e-6,"MEAN_MOTION_DOT":4.31e-6,"MEAN_MOTION_DDOT":0}]
